OBJECT_NAME,OBJECT_ID,EPOCH,MEAN_MOTION,ECCENTRICITY,INCLINATION,RA_OF_ASC_NODE,ARG_OF_PERICENTER,MEAN_ANOMALY,EPHEMERIS_TYPE,CLASSIFICATION_TYPE,NORAD_CAT_ID,ELEMENT_SET_NO,REV_AT_EPOCH,BSTAR,MEAN_MOTION_DOT,MEAN_MOTION_DDOT
SPACEMOBILE-004,2024-163E,2026-07-21T06:34:01.498944,15.20649512,.00051579,52.9720,152.1723,251.3714,108.6720,0,U,61049,999,10295,.6885481E-3,.15015E-3,0
CZ-8A R/B,2025-231K,2026-07-21T13:41:00.844224,14.30163511,.0116541,50.0030,253.0366,345.0655,14.6831,0,U,66004,999,3986,.31379056E-4,-.77E-6,0
SZ-21 MODULE,2025-246C,2026-07-21T23:06:35.431776,15.79324031,.00094605,41.4722,90.2512,262.6462,97.3309,0,U,66515,999,3923,.28882055E-3,.53835E-3,0
SPACEMOBILE-006,2025-309A,2026-07-22T04:28:55.021152,15.18684570,.00095202,52.9952,171.3039,239.2696,120.7360,0,U,67232,999,3191,.14204267E-3,.2664E-4,0
SPACEMOBILE-008,2026-139A,2026-07-22T00:34:01.573248,15.12810954,.00052889,52.9952,104.4056,72.6023,287.5546,0,U,69589,999,525,.38732129E-4,.387E-5,0
SPACEMOBILE-009,2026-139B,2026-07-22T00:37:31.894176,15.12712567,.0005584,52.9945,104.4147,69.1876,290.9713,0,U,69590,999,525,.96208504E-4,.1404E-4,0
SPACEMOBILE-010,2026-139C,2026-07-21T23:07:55.729344,15.12549374,.00055745,52.9950,104.7416,61.5315,298.6237,0,U,69591,999,525,.95955307E-4,.1392E-4,0
